[
    {
        "Altitude(m)": 622200.0750233139,
        "Argument of Periapsis(deg)": 0.0,
        "Eccentricity": 0.0,
        "Inclination(deg)": 60.0,
        "Latitude(deg)": -52.16244941750952,
        "Longitude(deg)": 92.36076865363677,
        "Mean Anomaly(deg)": -65.45449999999998,
        "RAAN(deg)": 240.0,
        "Satellite Name": "Test1 1074",
        "Satellite Number": 1074,
        "Semi-Major Axis(m)": 6980739.136638005,
        "Time(s)": 0
    },
    {
        "Altitude(m)": 622058.2426135662,
        "Argument of Periapsis(deg)": 0.00010418945913296404,
        "Eccentricity": 0.0,
        "Inclination(deg)": 60.0,
        "Latitude(deg)": -51.799198903366275,
        "Longitude(deg)": 93.1288248207991,
        "Mean Anomaly(deg)": -64.83439385453813,
        "RAAN(deg)": 239.99957995086024,
        "Satellite Name": "Test1 1074",
        "Satellite Number": 1074,
        "Semi-Major Axis(m)": 6980739.136638005,
        "Time(s)": 10
    }
]